{
  "type": "FeatureCollection",
  "features": [
    {
      "type": "Feature",
      "properties": {
        "norad_id": 66912,
        "name": "1998-067XY",
        "group": "last-30-days",
        "lat": 50.99036246742864,
        "lon": 173.69028059986584,
        "alt_km": 404.6460543350686,
        "timestamp": "2025-12-26T23:26:40.922609+00:00",
        "meta_object_name": "1998-067XY",
        "meta_object_id": "1998-067XY",
        "meta_epoch": "2025-12-26T12:12:45.084960",
        "meta_mean_motion": 15.52489248,
        "meta_eccentricity": 0.0003823,
        "meta_inclination": 51.6314,
        "meta_ra_of_asc_node": 73.9869,
        "meta_arg_of_pericenter": 301.1826,
        "meta_mean_anomaly": 58.8789,
        "meta_ephemeris_type": 0,
        "meta_classification_type": "U",
        "meta_norad_cat_id": 66912,
        "meta_element_set_no": 999,
        "meta_rev_at_epoch": 374,
        "meta_bstar": 0.00078444,
        "meta_mean_motion_dot": 0.00048771,
        "meta_mean_motion_ddot": 0,
        "tle_line1": "1 66912U 98067XY  25360.50885515  .00048771  00000+0  78444-3 0  9993",
        "tle_line2": "2 66912  51.6314  73.9869 0003823 301.1826  58.8789 15.52489248  3742"
      },
      "geometry": {
        "type": "Point",
        "coordinates": [
          173.69028059986584,
          50.99036246742864
        ]
      }
    },
    {
      "type": "Feature",
      "properties": {
        "norad_id": 66913,
        "name": "2025-284A",
        "group": "last-30-days",
        "lat": 52.500979743560194,
        "lon": -80.83454875080996,
        "alt_km": 539.2087926070726,
        "timestamp": "2025-12-26T23:26:40.922618+00:00",
        "meta_object_name": "2025-284A",
        "meta_object_id": "2025-284A",
        "meta_epoch": "2025-12-23T02:34:46.438752",
        "meta_mean_motion": 15.08893564,
        "meta_eccentricity": 0.0013475,
        "meta_inclination": 80.4035,
        "meta_ra_of_asc_node": 116.7336,
        "meta_arg_of_pericenter": 259.6514,
        "meta_mean_anomaly": 100.3189,
        "meta_ephemeris_type": 0,
        "meta_classification_type": "U",
        "meta_norad_cat_id": 66913,
        "meta_element_set_no": 999,
        "meta_rev_at_epoch": 269,
        "meta_bstar": 0.00055263602,
        "meta_mean_motion_dot": 8.748e-05,
        "meta_mean_motion_ddot": 0,
        "tle_line1": "1 66913U 25284A   25357.10748193  .00008748  00000+0  55264-3 0  9992",
        "tle_line2": "2 66913  80.4035 116.7336 0013475 259.6514 100.3189 15.08893564  2694"
      },
      "geometry": {
        "type": "Point",
        "coordinates": [
          -80.83454875080996,
          52.500979743560194
        ]
      }
    },
    {
      "type": "Feature",
      "properties": {
        "norad_id": 66914,
        "name": "2025-284B",
        "group": "last-30-days",
        "lat": 66.00450089062612,
        "lon": -90.61877482356655,
        "alt_km": 501.69809641348274,
        "timestamp": "2025-12-26T23:26:40.922629+00:00",
        "meta_object_name": "2025-284B",
        "meta_object_id": "2025-284B",
        "meta_epoch": "2025-12-16T06:51:11.417184",
        "meta_mean_motion": 15.18985981,
        "meta_eccentricity": 0.00081793,
        "meta_inclination": 80.4045,
        "meta_ra_of_asc_node": 125.2713,
        "meta_arg_of_pericenter": 234.9626,
        "meta_mean_anomaly": 125.0834,
        "meta_ephemeris_type": 0,
        "meta_classification_type": "U",
        "meta_norad_cat_id": 66914,
        "meta_element_set_no": 999,
        "meta_rev_at_epoch": 166,
        "meta_bstar": 0.00038444995,
        "meta_mean_motion_dot": 8.068e-05,
        "meta_mean_motion_ddot": 0,
        "tle_line1": "1 66914U 25284B   25350.28554881  .00008068  00000+0  38445-3 0  9991",
        "tle_line2": "2 66914  80.4045 125.2713 0008179 234.9626 125.0834 15.18985981  1668"
      },
      "geometry": {
        "type": "Point",
        "coordinates": [
          -90.61877482356655,
          66.00450089062612
        ]
      }
    },
    {
      "type": "Feature",
      "properties": {
        "norad_id": 66915,
        "name": "HULIANWANG DIGUI-105",
        "group": "last-30-days",
        "lat": 1.7729083734023807,
        "lon": -122.18448090532983,
        "alt_km": 891.0143586299446,
        "timestamp": "2025-12-26T23:26:40.922638+00:00",
        "meta_object_name": "HULIANWANG DIGUI-105",
        "meta_object_id": "2025-285A",
        "meta_epoch": "2025-12-26T17:28:13.886400",
        "meta_mean_motion": 14.02426342,
        "meta_eccentricity": 0.00081,
        "meta_inclination": 50.0059,
        "meta_ra_of_asc_node": 60.3162,
        "meta_arg_of_pericenter": 331.4786,
        "meta_mean_anomaly": 28.5674,
        "meta_ephemeris_type": 0,
        "meta_classification_type": "U",
        "meta_norad_cat_id": 66915,
        "meta_element_set_no": 999,
        "meta_rev_at_epoch": 287,
        "meta_bstar": 0.00012714,
        "meta_mean_motion_dot": 4.6e-07,
        "meta_mean_motion_ddot": 0,
        "tle_line1": "1 66915U 25285A   25360.72793850  .00000046  00000+0  12714-3 0  9993",
        "tle_line2": "2 66915  50.0059  60.3162 0008100 331.4786  28.5674 14.02426342  2874"
      },
      "geometry": {
        "type": "Point",
        "coordinates": [
          -122.18448090532983,
          1.7729083734023807
        ]
      }
    },
    {
      "type": "Feature",
      "properties": {
        "norad_id": 66916,
        "name": "HULIANWANG DIGUI-106",
        "group": "last-30-days",
        "lat": -9.288611665988613,
        "lon": -112.82903344424355,
        "alt_km": 890.0306458184241,
        "timestamp": "2025-12-26T23:26:40.922648+00:00",
        "meta_object_name": "HULIANWANG DIGUI-106",
        "meta_object_id": "2025-285B",
        "meta_epoch": "2025-12-26T17:24:07.490880",
        "meta_mean_motion": 14.02526755,
        "meta_eccentricity": 0.0006728,
        "meta_inclination": 50.0066,
        "meta_ra_of_asc_node": 60.3034,
        "meta_arg_of_pericenter": 324.0444,
        "meta_mean_anomaly": 36.0006,
        "meta_ephemeris_type": 0,
        "meta_classification_type": "U",
        "meta_norad_cat_id": 66916,
        "meta_element_set_no": 999,
        "meta_rev_at_epoch": 287,
        "meta_bstar": 0.00012472,
        "meta_mean_motion_dot": 4.2e-07,
        "meta_mean_motion_ddot": 0,
        "tle_line1": "1 66916U 25285B   25360.72508670  .00000042  00000+0  12472-3 0  9995",
        "tle_line2": "2 66916  50.0066  60.3034 0006728 324.0444  36.0006 14.02526755  2876"
      },
      "geometry": {
        "type": "Point",
        "coordinates": [
          -112.82903344424355,
          -9.288611665988613
        ]
      }
    },
    {
      "type": "Feature",
      "properties": {
        "norad_id": 66917,
        "name": "HULIANWANG DIGUI-107",
        "group": "last-30-days",
        "lat": -16.15122742775166,
        "lon": -106.6741691672654,
        "alt_km": 890.5367926267209,
        "timestamp": "2025-12-26T23:26:40.922657+00:00",
        "meta_object_name": "HULIANWANG DIGUI-107",
        "meta_object_id": "2025-285C",
        "meta_epoch": "2025-12-26T17:21:33.738624",
        "meta_mean_motion": 14.02681934,
        "meta_eccentricity": 0.0007379,
        "meta_inclination": 50.0032,
        "meta_ra_of_asc_node": 60.2855,
        "meta_arg_of_pericenter": 333.2229,
        "meta_mean_anomaly": 26.8293,
        "meta_ephemeris_type": 0,
        "meta_classification_type": "U",
        "meta_norad_cat_id": 66917,
        "meta_element_set_no": 999,
        "meta_rev_at_epoch": 287,
        "meta_bstar": 0.00011284,
        "meta_mean_motion_dot": 2.4e-07,
        "meta_mean_motion_ddot": 0,
        "tle_line1": "1 66917U 25285C   25360.72330716  .00000024  00000+0  11284-3 0  9990",
        "tle_line2": "2 66917  50.0032  60.2855 0007379 333.2229  26.8293 14.02681934  2872"
      },
      "geometry": {
        "type": "Point",
        "coordinates": [
          -106.6741691672654,
          -16.15122742775166
        ]
      }
    },
    {
      "type": "Feature",
      "properties": {
        "norad_id": 66918,
        "name": "HULIANWANG DIGUI-108",
        "group": "last-30-days",
        "lat": -18.372313443181937,
        "lon": -104.55711760475101,
        "alt_km": 889.3816207842974,
        "timestamp": "2025-12-26T23:26:40.922666+00:00",
        "meta_object_name": "HULIANWANG DIGUI-108",
        "meta_object_id": "2025-285D",
        "meta_epoch": "2025-12-26T17:20:44.547648",
        "meta_mean_motion": 14.02825316,
        "meta_eccentricity": 0.0006684,
        "meta_inclination": 50.0053,
        "meta_ra_of_asc_node": 60.2877,
        "meta_arg_of_pericenter": 328.2263,
        "meta_mean_anomaly": 31.8237,
        "meta_ephemeris_type": 0,
        "meta_classification_type": "U",
        "meta_norad_cat_id": 66918,
        "meta_element_set_no": 999,
        "meta_rev_at_epoch": 287,
        "meta_bstar": 0.00012874,
        "meta_mean_motion_dot": 4.9e-07,
        "meta_mean_motion_ddot": 0,
        "tle_line1": "1 66918U 25285D   25360.72273782  .00000049  00000+0  12874-3 0  9993",
        "tle_line2": "2 66918  50.0053  60.2877 0006684 328.2263  31.8237 14.02825316  2878"
      },
      "geometry": {
        "type": "Point",
        "coordinates": [
          -104.55711760475101,
          -18.372313443181937
        ]
      }
    }
  ]
}